[{"OBJECT_NAME":"STARLINK-32365","OBJECT_ID":"2024-191E","EPOCH":"2026-03-09T06:17:27.978432","MEAN_MOTION":15.2757406,"ECCENTRICITY":3.052e-5,"INCLINATION":42.995,"RA_OF_ASC_NODE":156.6897,"ARG_OF_PERICENTER":104.6492,"MEAN_ANOMALY":255.4394,"EPHEMERIS_TYPE":0,"CLASSIFICATION_TYPE":"U","NORAD_CAT_ID":61625,"ELEMENT_SET_NO":999,"REV_AT_EPOCH":7747,"BSTAR":-2.5661513e-5,"MEAN_MOTION_DOT":-9.67e-6,"MEAN_MOTION_DDOT":0},{"OBJECT_NAME":"OBJECT D","OBJECT_ID":"2025-197D","EPOCH":"2026-03-09T23:30:56.303712","MEAN_MOTION":15.25287442,"ECCENTRICITY":0.00144425,"INCLINATION":97.4091,"RA_OF_ASC_NODE":257.3677,"ARG_OF_PERICENTER":3.398,"MEAN_ANOMALY":356.7353,"EPHEMERIS_TYPE":0,"CLASSIFICATION_TYPE":"U","NORAD_CAT_ID":65491,"ELEMENT_SET_NO":999,"REV_AT_EPOCH":2822,"BSTAR":0.00037200129,"MEAN_MOTION_DOT":9.321e-5,"MEAN_MOTION_DDOT":0}]
